{"type": "FeatureCollection", "features": [ {"type": "Feature", "properties": {"norad_id": 43108, "name": "BEIDOU-3 M8 (C28)", "group": "beidou", "lat": 23.082477425126935, "lon": -33.45180332158478, "alt_km": 21530.99350113885, "timestamp": "2025-12-10T20:49:52.818779+00:00", "meta": {"OBJECT_NAME": "BEIDOU-3 M8 (C28)", "OBJECT_ID": "2018-003B", "EPOCH": "2025-12-10T06:54:49.457952", "MEAN_MOTION": 1.8623067, "ECCENTRICITY": 0.00048133, "INCLINATION": 54.4919, "RA_OF_ASC_NODE": 308.8832, "ARG_OF_PERICENTER": 273.6231, "MEAN_ANOMALY": 86.3126, "EPHEMERIS_TYPE": 0, "CLASSIFICATION_TYPE": "U", "NORAD_CAT_ID": 43108, "ELEMENT_SET_NO": 999, "REV_AT_EPOCH": 5384, "BSTAR": 0, "MEAN_MOTION_DOT": -8.2e-07, "MEAN_MOTION_DDOT": 0}, "tle": {"line1": "1 43108U 18003B   25344.28807243 -.00000082  00000+0  00000+0 0  9999", "line2": "2 43108  54.4919 308.8832 0004813 273.6231  86.3126  1.86230670 53841"}}, "geometry": {"type": "Point", "coordinates": [-33.45180332158478, 23.082477425126935]}}, {"type": "Feature", "properties": {"norad_id": 43207, "name": "BEIDOU-3 M4 (C22)", "group": "beidou", "lat": 56.415872224782674, "lon": 164.03339794097366, "alt_km": 21519.873844854188, "timestamp": "2025-12-10T20:49:52.818805+00:00", "meta": {"OBJECT_NAME": "BEIDOU-3 M4 (C22)", "OBJECT_ID": "2018-018A", "EPOCH": "2025-12-08T13:58:21.554688", "MEAN_MOTION": 1.86230863, "ECCENTRICITY": 0.00041601, "INCLINATION": 56.4826, "RA_OF_ASC_NODE": 69.4414, "ARG_OF_PERICENTER": 11.0555, "MEAN_ANOMALY": 348.9749, "EPHEMERIS_TYPE": 0, "CLASSIFICATION_TYPE": "U", "NORAD_CAT_ID": 43207, "ELEMENT_SET_NO": 999, "REV_AT_EPOCH": 5319, "BSTAR": 0, "MEAN_MOTION_DOT": -4.5e-07, "MEAN_MOTION_DDOT": 0}, "tle": {"line1": "1 43207U 18018A   25342.58219392 -.00000045  00000+0  00000+0 0  9997", "line2": "2 43207  56.4826  69.4414 0004160  11.0555 348.9749  1.86230863 53194"}}, "geometry": {"type": "Point", "coordinates": [164.03339794097366, 56.415872224782674]}}, {"type": "Feature", "properties": {"norad_id": 43208, "name": "BEIDOU-3 M3 (C21)", "group": "beidou", "lat": 38.24415501521981, "lon": 100.81942281424352, "alt_km": 21523.62900094303, "timestamp": "2025-12-10T20:49:52.818821+00:00", "meta": {"OBJECT_NAME": "BEIDOU-3 M3 (C21)", "OBJECT_ID": "2018-018B", "EPOCH": "2025-12-10T06:13:47.825184", "MEAN_MOTION": 1.86231214, "ECCENTRICITY": 0.00065169, "INCLINATION": 56.4836, "RA_OF_ASC_NODE": 69.3901, "ARG_OF_PERICENTER": 317.1688, "MEAN_ANOMALY": 42.8026, "EPHEMERIS_TYPE": 0, "CLASSIFICATION_TYPE": "U", "NORAD_CAT_ID": 43208, "ELEMENT_SET_NO": 999, "REV_AT_EPOCH": 5322, "BSTAR": 0, "MEAN_MOTION_DOT": -5.3e-07, "MEAN_MOTION_DDOT": 0}, "tle": {"line1": "1 43208U 18018B   25344.25958131 -.00000053  00000+0  00000+0 0  9994", "line2": "2 43208  56.4836  69.3901 0006516 317.1688  42.8026  1.86231214 53223"}}, "geometry": {"type": "Point", "coordinates": [100.81942281424352, 38.24415501521981]}}, {"type": "Feature", "properties": {"norad_id": 43245, "name": "BEIDOU-3 M9 (C29)", "group": "beidou", "lat": -53.77433993090273, "lon": -155.42133625744114, "alt_km": 21529.549949526296, "timestamp": "2025-12-10T20:49:52.818833+00:00", "meta": {"OBJECT_NAME": "BEIDOU-3 M9 (C29)", "OBJECT_ID": "2018-029A", "EPOCH": "2025-12-09T09:38:36.109248", "MEAN_MOTION": 1.86227964, "ECCENTRICITY": 0.00016746, "INCLINATION": 54.3687, "RA_OF_ASC_NODE": 306.5834, "ARG_OF_PERICENTER": 274.0787, "MEAN_ANOMALY": 85.8921, "EPHEMERIS_TYPE": 0, "CLASSIFICATION_TYPE": "U", "NORAD_CAT_ID": 43245, "ELEMENT_SET_NO": 999, "REV_AT_EPOCH": 5236, "BSTAR": 0, "MEAN_MOTION_DOT": -7.6e-07, "MEAN_MOTION_DDOT": 0}, "tle": {"line1": "1 43245U 18029A   25343.40180682 -.00000076  00000+0  00000+0 0  9996", "line2": "2 43245  54.3687 306.5834 0001674 274.0787  85.8921  1.86227964 52369"}}, "geometry": {"type": "Point", "coordinates": [-155.42133625744114, -53.77433993090273]}}, {"type": "Feature", "properties": {"norad_id": 43246, "name": "BEIDOU-3 M10 (C30)", "group": "beidou", "lat": -40.89065397641492, "lon": -91.82552382670363, "alt_km": 21526.40245163263, "timestamp": "2025-12-10T20:49:52.818844+00:00", "meta": {"OBJECT_NAME": "BEIDOU-3 M10 (C30)", "OBJECT_ID": "2018-029B", "EPOCH": "2025-12-10T09:51:50.083776", "MEAN_MOTION": 1.86228788, "ECCENTRICITY": 0.00039909, "INCLINATION": 54.3654, "RA_OF_ASC_NODE": 306.5763, "ARG_OF_PERICENTER": 359.52, "MEAN_ANOMALY": 0.4707, "EPHEMERIS_TYPE": 0, "CLASSIFICATION_TYPE": "U", "NORAD_CAT_ID": 43246, "ELEMENT_SET_NO": 999, "REV_AT_EPOCH": 5236, "BSTAR": 0, "MEAN_MOTION_DOT": -8.1e-07, "MEAN_MOTION_DDOT": 0}, "tle": {"line1": "1 43246U 18029B   25344.41099634 -.00000081  00000+0  00000+0 0  9991", "line2": "2 43246  54.3654 306.5763 0003990 359.5200   0.4707  1.86228788 52367"}}, "geometry": {"type": "Point", "coordinates": [-91.82552382670363, -40.89065397641492]}}, {"type": "Feature", "properties": {"norad_id": 43539, "name": "BEIDOU-2 IGSO-7 (C16)", "group": "beidou", "lat": -16.56376094821249, "lon": 152.71648381454537, "alt_km": 35886.57642494563, "timestamp": "2025-12-10T20:49:52.818856+00:00", "meta": {"OBJECT_NAME": "BEIDOU-2 IGSO-7 (C16)", "OBJECT_ID": "2018-057A", "EPOCH": "2025-12-09T10:39:54.393984", "MEAN_MOTION": 1.00258071, "ECCENTRICITY": 0.0092596, "INCLINATION": 55.1734, "RA_OF_ASC_NODE": 164.6998, "ARG_OF_PERICENTER": 235.2278, "MEAN_ANOMALY": 309.5847, "EPHEMERIS_TYPE": 0, "CLASSIFICATION_TYPE": "U", "NORAD_CAT_ID": 43539, "ELEMENT_SET_NO": 999, "REV_AT_EPOCH": 2722, "BSTAR": 0, "MEAN_MOTION_DOT": -6.9e-07, "MEAN_MOTION_DDOT": 0}, "tle": {"line1": "1 43539U 18057A   25343.44437956 -.00000069  00000+0  00000+0 0  9998", "line2": "2 43539  55.1734 164.6998 0092596 235.2278 309.5847  1.00258071 27227"}}, "geometry": {"type": "Point", "coordinates": [152.71648381454537, -16.56376094821249]}}, {"type": "Feature", "properties": {"norad_id": 43581, "name": "BEIDOU-3 M5 (C23)", "group": "beidou", "lat": 19.389945400721512, "lon": -6.065486304533704, "alt_km": 21531.615027908825, "timestamp": "2025-12-10T20:49:52.818867+00:00", "meta": {"OBJECT_NAME": "BEIDOU-3 M5 (C23)", "OBJECT_ID": "2018-062A", "EPOCH": "2025-12-07T09:56:06.099936", "MEAN_MOTION": 1.86228656, "ECCENTRICITY": 0.00021227, "INCLINATION": 54.0892, "RA_OF_ASC_NODE": 188.8244, "ARG_OF_PERICENTER": 353.0314, "MEAN_ANOMALY": 7.0363, "EPHEMERIS_TYPE": 0, "CLASSIFICATION_TYPE": "U", "NORAD_CAT_ID": 43581, "ELEMENT_SET_NO": 999, "REV_AT_EPOCH": 5006, "BSTAR": 0, "MEAN_MOTION_DOT": 5.9e-07, "MEAN_MOTION_DDOT": 0}, "tle": {"line1": "1 43581U 18062A   25341.41395949  .00000059  00000+0  00000+0 0  9999", "line2": "2 43581  54.0892 188.8244 0002122 353.0314   7.0363  1.86228656 50066"}}, "geometry": {"type": "Point", "coordinates": [-6.065486304533704, 19.389945400721512]}}, {"type": "Feature", "properties": {"norad_id": 43582, "name": "BEIDOU-3 M6 (C24)", "group": "beidou", "lat": -48.472157288061524, "lon": 63.6265524632368, "alt_km": 21553.966597081715, "timestamp": "2025-12-10T20:49:52.818879+00:00", "meta": {"OBJECT_NAME": "BEIDOU-3 M6 (C24)", "OBJECT_ID": "2018-062B", "EPOCH": "2025-12-09T23:05:00.502368", "MEAN_MOTION": 1.86229858, "ECCENTRICITY": 0.0007797, "INCLINATION": 54.0887, "RA_OF_ASC_NODE": 188.7266, "ARG_OF_PERICENTER": 46.9981, "MEAN_ANOMALY": 313.1258, "EPHEMERIS_TYPE": 0, "CLASSIFICATION_TYPE": "U", "NORAD_CAT_ID": 43582, "ELEMENT_SET_NO": 999, "REV_AT_EPOCH": 5011, "BSTAR": 0, "MEAN_MOTION_DOT": 5.2e-07, "MEAN_MOTION_DDOT": 0}, "tle": {"line1": "1 43582U 18062B   25343.96181137  .00000052  00000+0  00000+0 0  9997", "line2": "2 43582  54.0887 188.7266 0007797  46.9981 313.1258  1.86229858 50110"}}, "geometry": {"type": "Point", "coordinates": [63.6265524632368, -48.472157288061524]}}, {"type": "Feature", "properties": {"norad_id": 43602, "name": "BEIDOU-3 M12 (C26)", "group": "beidou", "lat": -49.94947895893721, "lon": 128.2019990239511, "alt_km": 21543.190439998947, "timestamp": "2025-12-10T20:49:52.818890+00:00", "meta": {"OBJECT_NAME": "BEIDOU-3 M12 (C26)", "OBJECT_ID": "2018-067A", "EPOCH": "2025-12-09T21:35:26.225376", "MEAN_MOTION": 1.86227534, "ECCENTRICITY": 0.00090945, "INCLINATION": 54.183, "RA_OF_ASC_NODE": 187.4598, "ARG_OF_PERICENTER": 40.6301, "MEAN_ANOMALY": 319.4946, "EPHEMERIS_TYPE": 0, "CLASSIFICATION_TYPE": "U", "NORAD_CAT_ID": 43602, "ELEMENT_SET_NO": 999, "REV_AT_EPOCH": 4959, "BSTAR": 0, "MEAN_MOTION_DOT": 5.3e-07, "MEAN_MOTION_DDOT": 0}, "tle": {"line1": "1 43602U 18067A   25343.89960909  .00000053  00000+0  00000+0 0  9990", "line2": "2 43602  54.1830 187.4598 0009094  40.6301 319.4946  1.86227534 49597"}}, "geometry": {"type": "Point", "coordinates": [128.2019990239511, -49.94947895893721]}}, {"type": "Feature", "properties": {"norad_id": 43603, "name": "BEIDOU-3 M11 (C25)", "group": "beidou", "lat": -15.432197271170754, "lon": 18.898691874219452, "alt_km": 21545.480494933778, "timestamp": "2025-12-10T20:49:52.818901+00:00", "meta": {"OBJECT_NAME": "BEIDOU-3 M11 (C25)", "OBJECT_ID": "2018-067B", "EPOCH": "2025-12-07T08:23:01.607424", "MEAN_MOTION": 1.86227152, "ECCENTRICITY": 0.0005581, "INCLINATION": 54.1802, "RA_OF_ASC_NODE": 187.5102, "ARG_OF_PERICENTER": 36.6822, "MEAN_ANOMALY": 323.425, "EPHEMERIS_TYPE": 0, "CLASSIFICATION_TYPE": "U", "NORAD_CAT_ID": 43603, "ELEMENT_SET_NO": 999, "REV_AT_EPOCH": 4957, "BSTAR": 0, "MEAN_MOTION_DOT": 6e-07, "MEAN_MOTION_DDOT": 0}, "tle": {"line1": "1 43603U 18067B   25341.34932416  .00000060  00000+0  00000+0 0  9999", "line2": "2 43603  54.1802 187.5102 0005581  36.6822 323.4250  1.86227152 49576"}}, "geometry": {"type": "Point", "coordinates": [18.898691874219452, -15.432197271170754]}}]}